1 44716U 19074D   24259.25042339  .00002941  00000-0  21624-3 0  9997
2 44716  53.0528  92.7422 0001102  78.7884 281.3229 15.06402340267444
1 44716U 19074D   24259.84755227 -.00001780  00000-0 -10070-3 0  9994
2 44716  53.0535  90.0616 0001168  78.5846 281.5274 15.06389258267530
1 44716U 19074D   24259.84755227 -.00001780  00000-0 -10070-3 0  9994
2 44716  53.0535  90.0616 0001168  78.5846 281.5274 15.06389258267361
1 44716U 19074D   24260.51102028  .00001609  00000-0  12692-3 0  9995
2 44716  53.0553  87.0831 0001169  85.1095 275.0028 15.06397585267465
1 44716U 19074D   24260.84275001  .00001987  00000-0  15224-3 0  9996
2 44716  53.0534  85.5935 0001300 100.7997 259.3139 15.06405910267688
1 44716U 19074D   24260.84275001  .00001987  00000-0  15224-3 0  9996
2 44716  53.0534  85.5935 0001300 100.7997 259.3139 15.06405910267510
1 44716U 19074D   24261.24082978  .00003147  00000-0  22998-3 0  9996
2 44716  53.0534  83.8067 0001214  94.1893 265.9235 15.06410938267574
1 44716U 19074D   24261.77160783  .00005694  00000-0  40074-3 0  9999
2 44716  53.0529  81.4233 0001250  93.0745 267.0387 15.06408339267822
1 44716U 19074D   24261.90430139  .00003721  00000-0  26852-3 0  9996
2 44716  53.0529  80.8269 0001374  95.8390 264.2756 15.06405428267675
1 44716U 19074D   24262.50141517  .00004622  00000-0  32886-3 0  9997
2 44716  53.0525  78.1467 0001321  93.8592 266.2548 15.06414973267761
1 44716U 19074D   24262.76679812  .00005228  00000-0  36943-3 0  9990
2 44716  53.0536  76.9546 0001381  95.9024 264.2122 15.06420153267804
1 44716U 19074D   24263.49661898 -.00000147  00000-0  90589-5 0  9990
2 44716  53.0532  73.6783 0001355  92.6394 267.4750 15.06400966268085
1 44716U 19074D   24263.49661898 -.00000147  00000-0  90589-5 0  9990
2 44716  53.0532  73.6783 0001355  92.6394 267.4750 15.06400966267916
1 44716U 19074D   24263.76200997 -.00002527  00000-0 -15083-3 0  9998
2 44716  53.0537  72.4851 0001365  98.3458 261.7686 15.06392181268127
1 44716U 19074D   24263.76200997 -.00002527  00000-0 -15083-3 0  9998
2 44716  53.0537  72.4851 0001365  98.3458 261.7686 15.06392181267957
1 44716U 19074D   24264.42548508 -.00002939  00000-0 -17860-3 0  9997
2 44716  53.0533  69.5048 0001142  92.3264 267.7856 15.06384747268056
1 44716U 19074D   24264.75721670 -.00001994  00000-0 -11501-3 0  9992
2 44716  53.0540  68.0197 0001251  99.6170 260.4961 15.06395279268105
1 44716U 19074D   24265.15529838  .00000383  00000-0  44590-4 0  9993
2 44716  53.0538  66.2324 0001194 114.4297 245.6817 15.06396395268336
1 44716U 19074D   24265.48703771  .00004459  00000-0  31810-3 0  9997
2 44716  53.0535  64.7428 0001195 100.1348 259.9776 15.06393033268216
1 44716U 19074D   24266.41588425  .00005164  00000-0  36521-3 0  9996
2 44716  53.0528  60.5718 0001239 101.4410 258.6718 15.06412297268527
1 44716U 19074D   24266.41588425  .00005164  00000-0  36521-3 0  9996
2 44716  53.0528  60.5718 0001239 101.4410 258.6718 15.06412297268358
1 44716U 19074D   24266.68126759  .00006115  00000-0  42887-3 0  9992
2 44716  53.0543  59.3818 0001221 102.4923 257.6203 15.06417925268398
1 44716U 19074D   24267.14569849  .00003560  00000-0  25767-3 0  9994
2 44716  53.0546  57.3000 0001732  83.1434 276.9752 15.06411729268637
1 44716U 19074D   24267.41108554  .00002629  00000-0  19528-3 0  9999
2 44716  53.0553  56.1086 0001886  87.5380 272.5825 15.06410651268506
1 44716U 19074D   24267.67647246  .00002173  00000-0  16474-3 0  9994
2 44716  53.0566  54.9174 0002141  85.6402 274.4832 15.06409253268542
1 44716U 19074D   24268.14090211 -.00001612  00000-0 -89322-4 0  9993
2 44716  53.0541  52.8291 0001576  92.0746 268.0423 15.06398801268783
1 44716U 19074D   24268.14090211 -.00001612  00000-0 -89322-4 0  9993
2 44716  53.0541  52.8291 0001576  92.0746 268.0423 15.06398801268615
1 44716U 19074D   24268.67166652  .00002142  00000-0  16260-3 0  9991
2 44716  53.0540  50.4463 0001216  93.1774 266.9354 15.06414981268868
1 44716U 19074D   24268.67166652  .00002142  00000-0  16260-3 0  9991
2 44716  53.0540  50.4463 0001216  93.1774 266.9354 15.06414981268699
1 44716U 19074D   24268.87069946  .00000939  00000-0  81869-4 0  9991
2 44716  53.0541  49.5527 0001506 104.2050 255.9106 15.06425041268897
1 44716U 19074D   24269.73322671 -.00000178  00000-0  69495-5 0  9992
2 44716  53.0570  45.6801 0001001  90.6441 269.4663 15.06394194269021
1 44716U 19074D   24269.73322671 -.00000178  00000-0  69495-5 0  9992
2 44716  53.0570  45.6801 0001001  90.6441 269.4663 15.06394194268851
1 44716U 19074D   24270.39668620  .00004956  00000-0  35121-3 0  9997
2 44716  53.0587  42.7009 0001027  92.9939 267.1168 15.06415171269127
1 44716U 19074D   24270.66206960  .00011297  00000-0  77556-3 0  9996
2 44716  53.0534  41.5136 0000969  94.0062 266.1038 15.06426115268990
1 44716U 19074D   24271.06014286  .00011982  00000-0  82112-3 0  9994
2 44716  53.0496  39.7231 0000562 316.1350  43.9594 15.06435774269225
1 44716U 19074D   24271.52458694 -.00008657  00000-0 -56323-3 0  9992
2 44716  53.0552  37.6419 0001498  97.1712 262.9447 15.06382762269295
1 44716U 19074D   24271.52458694 -.00008657  00000-0 -56323-3 0  9992
2 44716  53.0552  37.6419 0001498  97.1712 262.9447 15.06382762269127
1 44716U 19074D   24272.51979612  .00021545  00000-0  14604-2 0  9994
2 44716  53.0549  33.1732 0001552  95.2835 264.8331 15.06411497269444
1 44716U 19074D   24272.51979612  .00021545  00000-0  14604-2 0  9994
2 44716  53.0549  33.1732 0001552  95.2835 264.8331 15.06411497269275
1 44716U 19074D   24273.05056849  .00022986  00000-0  15564-2 0  9998
2 44716  53.0546  30.7920 0001423  89.3525 270.7627 15.06414968269529
1 44716U 19074D   24273.31596272  .00028096  00000-0  18973-2 0  9991
2 44716  53.0540  29.6017 0003347  86.5502 273.5870 15.06402808269563
1 44716U 19074D   24273.58134554  .00014470  00000-0  98793-3 0  9991
2 44716  53.0549  28.4080 0002160  91.4353 268.6884 15.06413293269436
1 44716U 19074D   24273.71404210  .00020042  00000-0  13606-2 0  9996
2 44716  53.0542  27.8128 0001641  94.0734 266.0442 15.06398397269620
1 44716U 19074D   24273.71404210  .00020042  00000-0  13606-2 0  9996
2 44716  53.0542  27.8128 0001641  94.0734 266.0442 15.06398397269451
1 44716U 19074D   24274.04577719  .00009722  00000-0  67072-3 0  9997
2 44716  53.0499  26.3212 0001716  96.5040 263.6144 15.06397292269679
1 44716U 19074D   24274.51020020  .00012263  00000-0  84040-3 0  9995
2 44716  53.0501  24.2358 0001632  95.2666 264.8509 15.06413949269573
1 44716U 19074D   24274.64289270  .00014068  00000-0  96095-3 0  9991
2 44716  53.0512  23.6408 0001693  93.0718 267.0464 15.06418572269768
1 44716U 19074D   24274.64289270  .00014068  00000-0  96095-3 0  9991
2 44716  53.0512  23.6408 0001693  93.0718 267.0464 15.06418572269599
1 44716U 19074D   24275.57176479 -.00002965  00000-0 -18035-3 0  9993
2 44716  53.0540  19.4717 0001459 104.2314 255.8837 15.06379637269905
1 44716U 19074D   24275.57176479 -.00002965  00000-0 -18035-3 0  9993
2 44716  53.0540  19.4717 0001459 104.2314 255.8837 15.06379637269736
1 44716U 19074D   24275.70446021 -.00002365  00000-0 -13998-3 0  9998
2 44716  53.0550  18.8750 0001588 104.6543 255.4622 15.06381300269758
1 44716U 19074D   24276.43425794  .00010808  00000-0  74281-3 0  9994
2 44716  53.0542  15.6005 0001718 106.7903 253.3274 15.06426564270030
1 44716U 19074D   24276.43425794  .00010808  00000-0  74281-3 0  9994
2 44716  53.0542  15.6005 0001718 106.7903 253.3274 15.06426564269869
1 44716U 19074D   24276.69963808  .00015033  00000-0  10248-2 0  9992
2 44716  53.0548  14.4086 0001515  98.3408 261.7753 15.06441458269901
1 44716U 19074D   24277.23044759 -.00002072  00000-0 -12021-3 0  9991
2 44716  53.0563  12.0277 0003859  84.6196 275.5234 15.06377149270150
1 44716U 19074D   24277.56218506  .00000578  00000-0  57734-4 0  9998
2 44716  53.0558  10.5359 0001375  79.4619 280.6525 15.06381150270035
1 44716U 19074D   24278.22564826  .00009153  00000-0  63252-3 0  9990
2 44716  53.0552   7.5556 0001231  74.9514 285.1611 15.06401864270300
1 44716U 19074D   24278.49102602  .00019338  00000-0  13124-2 0  9997
2 44716  53.0563   6.3704 0001867  78.3413 281.7785 15.06433149270344
1 44716U 19074D   24278.55736525  .00024259  00000-0  16398-2 0  9995
2 44716  53.0559   6.0669 0001452  75.0021 285.1128 15.06447042270183
1 44716U 19074D   24278.55736525  .00024259  00000-0  16398-2 0  9995
2 44716  53.0559   6.0669 0001452  75.0021 285.1128 15.06447042270352
1 44716U 19074D   24279.48623330 -.00010340  00000-0 -67642-3 0  9994
2 44716  53.0550   1.8982 0001916 120.2960 239.8218 15.06389775270493
1 44716U 19074D   24279.55258128 -.00005552  00000-0 -35415-3 0  9993
2 44716  53.0551   1.6020 0001815  67.6477 292.4704 15.06395184270339
1 44716U 19074D   24280.48143929  .00012650  00000-0  86646-3 0  9996
2 44716  53.0546 357.4320 0001418 100.5588 259.5561 15.06405245270646
1 44716U 19074D   24280.48143929  .00012650  00000-0  86646-3 0  9996
2 44716  53.0546 357.4320 0001418 100.5588 259.5561 15.06405245270477
1 44716U 19074D   24281.21125903  .00004903  00000-0  34785-3 0  9999
2 44716  53.0546 354.1569 0001623  99.2728 260.8445 15.06399294270757
1 44716U 19074D   24281.47664516  .00005859  00000-0  41183-3 0  9996
2 44716  53.0552 352.9665 0001750 103.5561 256.5623 15.06404303270626
1 44716U 19074D   24282.47184016  .00033439  00000-0  22502-2 0  9997
2 44716  53.0562 348.5020 0001181 101.6044 258.5077 15.06448991270947
1 44716U 19074D   24282.47184016  .00033439  00000-0  22502-2 0  9997
2 44716  53.0562 348.5020 0001181 101.6044 258.5077 15.06448991270778
1 44716U 19074D   24283.20166852  .00001490  00000-0  11891-3 0  9999
2 44716  53.0567 345.2246 0001460 105.7254 254.3896 15.06390990271055
1 44716U 19074D   24283.46706201 -.00002474  00000-0 -14738-3 0  9993
2 44716  53.0562 344.0297 0001303 107.2304 252.8828 15.06369771271097
1 44716U 19074D   24283.46706201 -.00002474  00000-0 -14738-3 0  9993
2 44716  53.0562 344.0297 0001303 107.2304 252.8828 15.06369771270928
